Name;Address;Latitude;Longitude;Keyword;Category
Botica MA&VI FARMA;Lima District 15842, Peru;-12.196418;-76.9594418;pharmacy in Lima, Peru;Pharmacy in Villa el Salvador, Peru
Mario Rojas;Av. Tarapaca 551, RÃ­mac 15094, Peru;-12.0294615;-77.0355306;pharmacy in Lima, Peru;Pharmacy in RÃ­mac District, Peru
Farmacia;Sta Rosa, Cercado de Lima 15079, Peru;-12.0384706;-77.0615011;pharmacy in Lima, Peru;Pharmacy in the Lima District, Peru
Biamish;Calle 6 6, Cercado de Lima 15011, Peru;-12.216917;-76.92384;pharmacy in Lima, Peru;Pharmacy in Villa el Salvador, Peru
Boticas Afja;Av. los HÃ©roes, Lima 15801, Peru;-12.159548;-76.959109;pharmacy in Lima, Peru;Pharmacy in San Juan de Miraflores, Peru
INKAFARMA;Av. Universitaria 212, Cercado de Lima 15081, Peru;-12.0377502;-77.0775655;pharmacy in Lima, Peru;Pharmacy in the Lima District, Peru
Botica NeoSalud;Av. Victor Raul Haya de la Torre 537, La Perla 07011, Peru;-12.0654817;-77.1087534;pharmacy in Lima, Peru;Pharmacy in Peru
Boticas PerÃº;Av. Samuel Alcazar 852, RÃ­mac 15094, Peru;-12.0266894;-77.0334025;pharmacy in Lima, Peru;Pharmacy in RÃ­mac District, Peru
NATURE PLANTS;Calle Chinchaysuyo s/n, San Miguel 15088, Peru;-12.0721274;-77.0944546;pharmacy in Lima, Peru;Pharmacy in Peru
JJ Salud;JirÃ³n CamanÃ¡ 776, Cercado de Lima 15001, Peru;-12.0498978;-77.035732;pharmacy in Lima, Peru;Pharmacy in the Lima District, Peru
Mifarma;Av. Inca Garcilaso de la Vega 1900, Cercado de Lima 15046, Peru;-12.0635041;-77.0378363;pharmacy in Lima, Peru;Pharmacy in the Lima District, Peru
Botica Elifarma;Av. Alfonso Ugarte 900, Cercado de Lima 15082, Peru;-12.0510867;-77.0425888;pharmacy in Lima, Peru;Pharmacy in BreÃ±a, Peru
Farmalab;Yen Escobedo Garro 656, Cercado de Lima 15021, Peru;-12.0752493;-76.9949045;pharmacy in Lima, Peru;Pharmacy in San Luis District, Lima, Peru
INKAFARMA;Av Mariscal RamÃ³n Castilla 189, Barranco 15048, Peru;-12.1336749;-77.0171557;pharmacy in Lima, Peru;Pharmacy in the Santiago de Surco, Peru
Hollywood Loreto;Jr. Loreto 495, BreÃ±a 15082, Peru;-12.054962;-77.04916;pharmacy in Lima, Peru;Pharmacy in BreÃ±a, Peru
TuFarma;Av. Argentina 672, Cercado de Lima 15079, Peru;-12.043779;-77.050425;pharmacy in Lima, Peru;Pharmacy in the Lima District, Peru
MiFarma;Av. Gregorio Escobedo 892, JesÃºs MarÃ­a 15072, Peru;-12.0881961;-77.0566091;pharmacy in Lima, Peru;Pharmacy in JesÃºs MarÃ­a District, Lima, Peru
Boticas Farmacenter;Avenida EmancipaciÃ³n 226, Cercado de Lima 15001, Peru;-12.0480186;-77.0344841;pharmacy in Lima, Peru;Pharmacy in the Lima District, Peru
FARMACIA LA MERCED;Lima District 15081, Peru;-12.0365524;-77.0722001;pharmacy in Lima, Peru;Pharmacy in the Lima District, Peru
Mifarma;Av RepÃºblica Dominicana, Cercado de Lima 15072, Peru;-12.0737273;-77.0494881;pharmacy in Lima, Peru;Pharmacy in JesÃºs MarÃ­a District, Lima, Peru
SANIQUIMICOS - COLAGENO HIDROLIZADO;Calle Chinchaysuyo 92, San Miguel 15088, Peru;-12.0722847;-77.0945021;pharmacy in Lima, Peru;Pharmacy in Peru
BOTICAS y SALUD;Av. Abancay 700, Cercado de Lima 15001, Peru;-12.0528074;-77.0295473;pharmacy in Lima, Peru;Pharmacy in the Lima District, Peru
INKAFARMA;Av. CÃ©sar Vallejo, Lima 15076, Peru;-12.1045677;-77.0492504;pharmacy in Lima, Peru;Pharmacy in San Isidro, Peru
farmacÃ³m;Jr. Huiracocha 1650, JesÃºs MarÃ­a 15072, Peru;-12.0788669;-77.0500969;pharmacy in Lima, Peru;Pharmacy in JesÃºs MarÃ­a District, Lima, Peru
BOTICA NOVASALUD;Av. Alfonso Ugarte 520, Cercado de Lima 15082, Peru;-12.0470972;-77.0429519;pharmacy in Lima, Peru;Pharmacy in the Lima District, Peru
Paradero a Miraflores;Av. Tacna 592, Cercado de Lima 15001, Peru;-12.0470006;-77.0380724;pharmacy in Lima, Peru;Pharmacy in the Lima District, Peru
Boticas PerÃº;Av. RepÃºblica de Venezuela 907, BreÃ±a 15082, Peru;-12.055157;-77.0466738;pharmacy in Lima, Peru;Pharmacy in BreÃ±a, Peru
Medical Specialty Clinic;Jr.Eduardo OrdoÃ±ez 468, San Borja 15036, Peru;-12.1060355;-77.0015663;pharmacy in Lima, Peru;Medical clinic in the San Borja District, Peru
Boticas y Salud;Tda. 106 y 108 EstaciÃ³n Metropolitano, Cercado de Lima 15001, Peru;-12.0573997;-77.0360268;pharmacy in Lima, Peru;Pharmacy in the Lima District, Peru
Boticas Farmacentro;JirÃ³n CamanÃ¡ 695, Cercado de Lima 15001;-12.0492328;-77.0348651;pharmacy in Lima, Peru;Pharmacy in the Lima District
INKAFARMA;Calle BolÃ­var 200, Barranco 15074, Peru;-12.1257353;-77.0280059;pharmacy in Lima, Peru;Pharmacy in Peru
Chico Cruz, Pilar;JirÃ³n Zorritos 147, Cercado de Lima 15082, Peru;-12.0508743;-77.0430073;pharmacy in Lima, Peru;Pharmacy in BreÃ±a, Peru
INKAFARMA;Av. Gral. CÃ³rdova 1085, LIMA 15074, Peru;-12.109154;-77.048571;pharmacy in Lima, Peru;Pharmacy in Peru
IMPORTACIONES HOSPIFARMA SAC;Jr, JirÃ³n Chancay 612, Cercado de Lima 15001, Peru;-12.0458748;-77.0386856;pharmacy in Lima, Peru;Pharmacy in the Lima District, Peru
Lyn Farma;Av. Alfonso Ugarte 938, Cercado de Lima 15082, Peru;-12.0510511;-77.0426561;pharmacy in Lima, Peru;Pharmaceutical company in BreÃ±a, Peru
Boticas Minerva;Avenida RepÃºblica de Venezuela 187 BreÃ±a, Cercado de Lima 15082, Peru;-12.0554531;-77.0522562;pharmacy in Lima, Peru;Pharmacy in BreÃ±a, Peru
drog.srcautivofarmasac;Jr. Quilca, Pucallpa 25004, Peru;-12.0510317;-77.0410346;pharmacy in Lima, Peru;Pharmacy in the Lima District, Peru
Botica 28 de Julio;Av. Alameda, Callao 07026, Peru;-12.0439084;-77.1103736;pharmacy in Lima, Peru;Pharmacy in Peru
Macromedica S.A.;Avenida EmancipaciÃ³n 559, Cercado de Lima 15001, Peru;-12.0460667;-77.0380668;pharmacy in Lima, Peru;Pharmacy in the Lima District, Peru
Farmatodo;JirÃ³n CaÃ±ete 301, Cercado de Lima 15001, Peru;-12.0434664;-77.0380519;pharmacy in Lima, Peru;Pharmacy in the Lima District, Peru
Farma PerÃº;Lima 15806, Peru;-12.1254976;-76.9574643;pharmacy in Lima, Peru;Pharmacy in San Juan de Miraflores, Peru
Morales Medical E.I.R.L;JirÃ³n Chancay 622, Cercado de Lima 15001, Peru;-12.046023;-77.0386231;pharmacy in Lima, Peru;Pharmacy in the Lima District, Peru
Boticas Insurgentes;Av. los Insurgentes, La Perla 07011, Peru;-12.0686622;-77.1043172;pharmacy in Lima, Peru;Pharmacy in Peru
Boticas Gaby;JirÃ³n Victor Sarria Arsubiaga, 1340, Cercado de Lima 15081, Peru;-12.054632;-77.070871;pharmacy in Lima, Peru;Pharmacy in the Lima District, Peru
Grupo Fameza SAC;Unnamed road, Cercado de Lima, Peru;-12.046374;-77.0427933;pharmacy in Lima, Peru;Pharmacy in the Lima District, Peru
Farmacia Estense;Av. Juan Pardo de Zela 742, Lince 15046, Peru;-12.0828499;-77.0289023;pharmacy in Lima, Peru;Pharmacy in the Lince District, Peru
Botica Solefarma;JirÃ³n Zorritos 721, Cercado de Lima 15082, Peru;-12.0499021;-77.0500439;pharmacy in Lima, Peru;Pharmacy in BreÃ±a, Peru
Farmacia San Marcos;JirÃ³n Huaraz 1435, BreÃ±a 15083, Peru;-12.0637753;-77.0480855;pharmacy in Lima, Peru;Pharmacy in BreÃ±a, Peru
Botica Farmatodo;JirÃ³n Joaquin Capello 670, Cercado de Lima 15102, Peru;-12.029495;-77.0567859;pharmacy in Lima, Peru;Pharmacy in San MartÃ­n de Porres District, Peru
SBM SOFTWARE;17,saradamani road,ashram para,siliguri-1, Camino Real ramkrishna maidan, Carabayllo, Peru;-11.8701175;-77.034443;pharmacy in Lima, Peru;Software company in the Carabayllo District, Peru
INKAFARMA;JR, Los Flamencos 299, Lima, Peru;-12.373321;-76.7902;pharmacy in Lima, Peru;Pharmacy in Punta Negra, Peru
Boticas ArcÃ¡ngel;Av. Garcilaso de la Vega 1337 Real Plaza Tienda 1085 1er. Piso, Cercado de Lima 15001, Peru;-12.0574935;-77.0373791;pharmacy in Lima, Peru;Pharmacy in the Lima District, Peru
Altez Farma;Tacna 3301a, Cercado de Lima 15106, Peru;-12.0344758;-77.0841487;pharmacy in Lima, Peru;Pharmacy in San MartÃ­n de Porres District, Peru
ALFA LAVAL SA;Megacentro Lurin interior D, Peru;-12.2718612;-76.8880548;pharmacy in Lima, Peru;Machine workshop in the LurÃ­n District, Peru
INKAFARMA;MZA Q-8 LOTE 4 A.H. JOSe CARLOS MARIaTEGUI Lima, Peru;-12.0463731;-77.042754;pharmacy in Lima, Peru;Pharmacy in the Lima District, Peru
BOTICA FARMASALUD;Av. Alfonso Ugarte 988, Cercado de Lima 15082, Peru;-12.0515146;-77.0425976;pharmacy in Lima, Peru;Pharmacy in BreÃ±a, Peru
"Botica ""Rojas""";Av. Abancay 248, Cercado de Lima 15001, Peru;-12.0474474;-77.026734;pharmacy in Lima, Peru;Pharmacy in the Lima District, Peru
Botica F&R Pharmacy;Ventanilla 07071;-11.8372813;-77.1605156;pharmacy in Lima, Peru;Pharmacy in Peru
Slen - Better;Avenida EmancipaciÃ³n 553, Cercado de Lima 15001, Peru;-12.0461965;-77.0382095;pharmacy in Lima, Peru;Pharmacy in the Lima District, Peru
BMC Farma;Av Brigida Silva de Ochoa 174, Lima 15087, Peru;-12.08301;-77.0892669;pharmacy in Lima, Peru;Pharmacy in Peru
INKAFARMA;AV. LA MARINA NRO. 2569 URB, Ca. Maranga, LIMA, Peru;-12.078249;-77.0903504;pharmacy in Lima, Peru;Pharmacy in Peru
FARMACIA EMERGENCIA;Av. Alfonso Ugarte 825, Cercado de Lima 15001, Peru;-12.0497548;-77.0421694;pharmacy in Lima, Peru;Pharmacy in the Lima District, Peru
INKAFARMA;AV. PASEO DE LA REPUBLICA NRO. 134N, Cercado de Lima, Peru;-12.0588425;-77.035948;pharmacy in Lima, Peru;Pharmacy in the Lima District, Peru
INKAFARMA;Jr. Francisco Bolognesi 880, LIMA 15063, Peru;-12.1427851;-77.0180733;pharmacy in Lima, Peru;Pharmacy in Peru
INKAFARMA;Av. Tacna 399, Cercado de Lima 15001, Peru;-12.0454885;-77.0366741;pharmacy in Lima, Peru;Pharmacy in the Lima District, Peru
HOMEO FARMA;Av. RepÃºblica de Venezuela 663, BreÃ±a 15082, Peru;-12.0547226;-77.0431772;pharmacy in Lima, Peru;Pharmacy in BreÃ±a, Peru
INKAFARMA;Av. la Marina NRO. 2293, LIMA LIMA 15087, Peru;-12.0782809;-77.0867569;pharmacy in Lima, Peru;Pharmacy in Peru
Farma San NicolÃ¡s;Av Carlos Zavala 206, Cercado de Lima 15001, Peru;-12.0584552;-77.031682;pharmacy in Lima, Peru;Pharmacy in the Lima District, Peru
Mifarma;Av. AngÃ©lica Gamarra, San MartÃ­n de Porres 15108, Peru;-12.0111592;-77.0902735;pharmacy in Lima, Peru;Pharmacy in San MartÃ­n de Porres District, Peru
FarmaPeru;Jr.Leoncio Prado 1008, Magdalena del Mar 15086, Peru;-12.088492;-77.0715284;pharmacy in Lima, Peru;Pharmacy in Magdalena del Mar, Peru
Mi Farma;Av. PerÃº 1332, Cercado de Lima 15101, Peru;-12.0326661;-77.0587578;pharmacy in Lima, Peru;Pharmacy in San MartÃ­n de Porres District, Peru
BOTICA 2000;Av. Abancay 958, Cercado de Lima 15001, Peru;-12.0561191;-77.0305109;pharmacy in Lima, Peru;Pharmacy in the Lima District, Peru
Botica El Eden;San Juan de Miraflores 15824, Peru;-12.1748201;-76.9671692;pharmacy in Lima, Peru;Pharmacy in San Juan de Miraflores, Peru
Plants Salud;Calle Chinchaysuyo, San Miguel 15088, Peru;-12.0727933;-77.0944933;pharmacy in Lima, Peru;Pharmacy in Peru
Botica El Lucero SA;JirÃ³n Sta. Rosa 360A, Cercado de Lima 15001, Peru;-12.0497389;-77.0301499;pharmacy in Lima, Peru;Pharmacy in the Lima District, Peru
INKAFARMA;JirÃ³n de la UniÃ³n NRO. 866, Cercado de Lima 15001, Peru;-12.0505237;-77.0345899;pharmacy in Lima, Peru;Pharmacy in the Lima District, Peru
America Salud;Av. Parque Gonzales Prada, Magdalena del Mar 15076, Peru;-12.0913863;-77.0644221;pharmacy in Lima, Peru;Pharmacy in Magdalena del Mar, Peru
Rohus + Farma;Av. Los Eucaliptos 810, Santa Anita 15008, Peru;-12.0458099;-76.9758133;pharmacy in Lima, Peru;Pharmacy in the Santa Anita District, Peru
Boticas ArcÃ¡ngel;Av. RepÃºblica de Venezuela 651, BreÃ±a 15082, Peru;-12.0547015;-77.0431103;pharmacy in Lima, Peru;Pharmacy in BreÃ±a, Peru
Neosalud Cercado;JirÃ³n de la UniÃ³n 1169, Cercado de Lima 15001, Peru;-12.0549745;-77.0364107;pharmacy in Lima, Peru;Pharmacy in the Lima District, Peru
HEDASILT MEDIC;JirÃ³n Chancay 638, Cercado de Lima 15001, Peru;-12.046374;-77.0389199;pharmacy in Lima, Peru;Pharmacy in the Lima District, Peru
Cadena de Boticas America Salud;Calle Elmer Faucett 483, San Miguel 15088, Peru;-12.0647749;-77.097464;pharmacy in Lima, Peru;Pharmacy in Peru
Botica San Gabriel E.I.R.L;JirÃ³n Cailloma 201, Cercado de Lima 15001, Peru;-12.0450439;-77.0333522;pharmacy in Lima, Peru;Pharmacy in the Lima District, Peru
MiFarma;Av. la Libertad 1521, San Miguel 15087, Peru;-12.0827647;-77.096594;pharmacy in Lima, Peru;Pharmacy in Peru
Farmacia Universal;604, JirÃ³n Angaraes 514, Cercado de Lima 15001;-12.0448506;-77.0404294;pharmacy in Lima, Peru;Pharmacy in the Lima District
Farmacia Farmamec;JirÃ³n Ayacucho 1181, La Victoria 15001, Peru;-12.0584765;-77.028231;pharmacy in Lima, Peru;Pharmacy in the Lima District, Peru
Botica Novasalud;Jr. Independencia 223, BreÃ±a 15083, Peru;-12.0632579;-77.0464784;pharmacy in Lima, Peru;Pharmacy in BreÃ±a, Peru
Boticas Y Salud;Av. RepÃºblica de Venezuela 1098, BreÃ±a 15082, Peru;-12.0550223;-77.0490999;pharmacy in Lima, Peru;Pharmacy in BreÃ±a, Peru
INKAFARMA;Jose Manuel Iturregui 604, LIMA 15074, Peru;-12.1229844;-77.0293195;pharmacy in Lima, Peru;Pharmacy in Peru
Aspirina Forte;Lima 15082, Peru;-12.0463731;-77.042754;pharmacy in Lima, Peru;Pharmacy in the Lima District, Peru
Farmacia San Bartolome;Av. Alfonso Ugarte, Cercado de Lima 15001, Peru;-12.0502673;-77.0421704;pharmacy in Lima, Peru;Pharmacy in the Lima District, Peru
Medi Pharmacy consultorio mÃ©dico y Farmacia;Av. Guardia Civil Sur mz B lt 7 urbanizaciÃ³n, Santiago de Surco, Peru;-12.1704418;-76.9920283;pharmacy in Lima, Peru;Pharmacy in the Santiago de Surco, Peru
Jr codesuyo 459;JirÃ³n Mancora 199-163, Cercado de Lima 15079, Peru;-12.0389011;-77.0497364;pharmacy in Lima, Peru;Pharmacy in the Lima District, Peru
Novartis;Av Juan de Arona 151, San Isidro 15046, Peru;-12.0967857;-77.0320974;pharmacy in Lima, Peru;Pharmaceutical company in San Isidro, Peru
Ahorro Farma;Av.2 De Octubre Mz. M Lt. 2, LIMA 15307, Peru;-11.9486526;-77.0795383;pharmacy in Lima, Peru;Pharmacy in Los Olivos District, Peru
Farmacia Gonzalez;Plaza Bolognesi 586, BreÃ±a 15082, Peru;-12.0602946;-77.0421031;pharmacy in Lima, Peru;Pharmacy in BreÃ±a, Peru
Botica Luhfarma;Avenida EmancipaciÃ³n 752, Cercado de Lima 15001, Peru;-12.0448653;-77.0395187;pharmacy in Lima, Peru;Pharmacy in the Lima District, Peru
PHARMACY INTERNATIONAL S.A.C.(INKAMAX);JirÃ³n Miro Quesada 1308, Cercado de Lima 15003, Peru;-12.053119;-77.0171857;pharmacy in Lima, Peru;Pharmacy in the Lima District, Peru
Sanofi;GalerÃ­a CapÃ³n Center, Jr. Paruro 926, Cercado de Lima 15001, Peru;-12.0528792;-77.0254046;pharmacy in Lima, Peru;Pharmacy in the Lima District, Peru
INKAFARMA;Av Antonio JosÃ© de Sucre 675, LIMA 15084, Peru;-12.0778202;-77.0646418;pharmacy in Lima, Peru;Pharmacy in Pueblo Libre, Peru
Mifarma;Calle San GermÃ¡n 271, RÃ­mac 15093, Peru;-12.0350493;-77.0340925;pharmacy in Lima, Peru;Pharmacy in RÃ­mac District, Peru
PlusFarma;Av. Alfonso Ugarte 995, Cercado de Lima 15082, Peru;-12.0517208;-77.0420702;pharmacy in Lima, Peru;Drug store in the Lima District, Peru
Provi Now;Avenida EmancipaciÃ³n 549, Cercado de Lima 15001, Peru;-12.046344;-77.0380571;pharmacy in Lima, Peru;Pharmacy in the Lima District, Peru
MiFarma;JirÃ³n de la UniÃ³n 204, Cercado de Lima 15001, Peru;-12.0442377;-77.0302118;pharmacy in Lima, Peru;Pharmacy in the Lima District, Peru
Botica Btl;Av. NicolÃ¡s de PiÃ©rola 788, Cercado de Lima 15001, Peru;-12.0507013;-77.0363235;pharmacy in Lima, Peru;Pharmacy in the Lima District, Peru
BÃ³tica Arcangel;Av. Alfonso Ugarte 298, Cercado de Lima 15079, Peru;-12.042784;-77.043345;pharmacy in Lima, Peru;Pharmacy in the Lima District, Peru
Inkafarma;Av. la Marina 2293, San Miguel 15087, Peru;-12.0793726;-77.0885518;pharmacy in Lima, Peru;Pharmacy in Peru
MiFarma Juan Pablo Fernandini;Juan Pablo Fernandini 800, BreÃ±a 15083, Peru;-12.0662419;-77.047482;pharmacy in Lima, Peru;Pharmacy in BreÃ±a, Peru
ALCIMARS MEDIC SAC;JirÃ³n Moquegua 613, Cercado de Lima 15001, Peru;-12.0467145;-77.0392646;pharmacy in Lima, Peru;Pharmacy in the Lima District, Peru
Martinizing Dry Cleaning;Armendariz, Cercado de Lima 15074, Peru;-12.1326318;-77.0281496;pharmacy in Lima, Peru;Dry cleaner in Peru
INKAFARMA;Av Lima NRO. 2500, Cercado de Lima 15101, Peru;-12.0297723;-77.0730976;pharmacy in Lima, Peru;Pharmacy in San MartÃ­n de Porres District, Peru
Boticas Farmacon;Av. SimÃ³n Bolivar 1155, Pueblo Libre 15084, Peru;-12.0725418;-77.0654926;pharmacy in Lima, Peru;Pharmacy in Pueblo Libre, Peru
PHARMA SALUD;12 De Octubre 2435, Cercado de Lima 15108;-11.9955648;-77.0932283;pharmacy in Lima, Peru;Pharmacy in San MartÃ­n de Porres District
A & M Medical;JirÃ³n Chancay 627, Cercado de Lima 15001, Peru;-12.0460931;-77.0386101;pharmacy in Lima, Peru;Pharmacy in the Lima District, Peru
American Health - Botica;Armendariz, Cercado de Lima 15074, Peru;-12.132549;-77.0282223;pharmacy in Lima, Peru;Pharmacy in Peru
Antiques El Portal.;Miraflores 15074, Peru;-12.1181744;-77.0267805;pharmacy in Lima, Peru;Antique store in Peru
Farma Rolando;JirÃ³n Sandia 300, Cercado de Lima 15001, Peru;-12.0574245;-77.0322943;pharmacy in Lima, Peru;Pharmacy in the Lima District, Peru
INKAFARMA;Av. dos de Mayo NRO. 478, Provincia de CaÃ±ete 15073, Peru;-12.0909794;-77.0369531;pharmacy in Lima, Peru;Pharmacy in San Isidro, Peru
BOTICA COLLIQUE;Jiron Los Geranios 107, Comas 15313, Peru;-11.9134697;-77.0398405;pharmacy in Lima, Peru;Pharmacy in the Comas District, Lima, Peru
Botica Dayam;Av. Guardia Chalaca 2199, Bellavista 07016, Peru;-12.062792;-77.1224479;pharmacy in Lima, Peru;Pharmacy in Bellavista District, Peru
INKAFARMA;Av Bausate y Meza 300, Cercado de Lima 15033, Peru;-12.0648025;-77.0297518;pharmacy in Lima, Peru;Pharmacy in La Victoria District, Lima, Peru
BOTICAS MI PERÃš;Av. PrÃ³ceres 7792, Los Olivos 15307, Peru;-11.9381163;-77.0750087;pharmacy in Lima, Peru;Pharmacy in Los Olivos District, Peru
Botica SaluFarma;Jr. Lucanas 250, Cercado de Lima 15001, Peru;-12.053812;-77.0197733;pharmacy in Lima, Peru;Pharmacy in the Lima District, Peru
Botica Yvonne;Caracas 180, La Perla 07016, Peru;-12.069433;-77.1159799;pharmacy in Lima, Peru;Pharmacy in Peru
tienda odontologicas;Avenida EmancipaciÃ³n 331, Cercado de Lima 15001, Peru;-12.0474399;-77.0359893;pharmacy in Lima, Peru;Pharmacy in the Lima District, Peru
Medifarma;JirÃ³n de la UniÃ³n, Cercado de Lima 15001, Peru;-12.0494294;-77.0336996;pharmacy in Lima, Peru;Pharmacy in the Lima District, Peru
DXN International PerÃº S.A.C.;Av. Angamos Oeste 547, Miraflores 15074;-12.1141267;-77.0339954;pharmacy in Lima, Peru;Association or organization
Botica los Precursores;Av de los Precursores 693, San Miguel 15088, Peru;-12.0699536;-77.0958039;pharmacy in Lima, Peru;Pharmacy in Peru
Boticas Minerva;Av. Angamos 690, Surquillo 15047, Peru;-12.1135278;-77.0235224;pharmacy in Lima, Peru;Pharmacy in the Surquillo, Peru
AmÃ©rica Salud;Avenida Comandante Espinar 830, Miraflores 15074, Peru;-12.1113834;-77.0366754;pharmacy in Lima, Peru;Pharmacy in Peru
Farmacia Lucero;Av Brasil 2698, Pueblo Libre 15084;-12.0842293;-77.0615957;pharmacy in Lima, Peru;Drug store in Pueblo Libre
Distribuciones Brimed Sac;Avenida EmancipaciÃ³n 343, Cercado de Lima 15001, Peru;-12.0473455;-77.0362351;pharmacy in Lima, Peru;Pharmacy in the Lima District, Peru
Botica valani;Av. NicolÃ¡s de PiÃ©rola 675, Cercado de Lima 15001;-12.0497857;-77.0372482;pharmacy in Lima, Peru;Pharmacy in the Lima District
INKAFARMA;Av. Universitaria MZA. A, Cercado de Lima 15311, Peru;-11.9625192;-77.062038;pharmacy in Lima, Peru;Pharmacy in the Comas District, Lima, Peru
Farmacia Queen;Jr. Morro Solar 1204, Santiago de Surco 15039, Peru;-12.128411;-76.977593;pharmacy in Lima, Peru;Pharmacy in the Santiago de Surco, Peru
Medifarma Planta 2;Ecuador, Cercado de Lima 15079, Peru;-12.0439193;-77.0559265;pharmacy in Lima, Peru;Medical laboratory in the Lima District, Peru
Botica Medylab3;Pastaza 1377, BreÃ±a 15082, Peru;-12.0539366;-77.0533031;pharmacy in Lima, Peru;Pharmacy in BreÃ±a, Peru
Farmacia;Av Guillermo Dansey 534, Cercado de Lima 15082, Peru;-12.0452135;-77.0462564;pharmacy in Lima, Peru;Pharmacy in the Lima District, Peru
Farmacia Universal;Avenida EmancipaciÃ³n 799, Cercado de Lima 15001, Peru;-12.0449231;-77.0403386;pharmacy in Lima, Peru;Pharmacy in the Lima District, Peru
Mega Botikas;Av. RepÃºblica de Venezuela 962, BreÃ±a 15082, Peru;-12.05481;-77.047068;pharmacy in Lima, Peru;Pharmacy in BreÃ±a, Peru
Farmashop;Av. Arenales 1483, Cercado de Lima 15046, Peru;-12.079586;-77.0362488;pharmacy in Lima, Peru;Pharmacy in the Lima District, Peru
Super Boticas Hollywood;Av. RepÃºblica de Venezuela 990, BreÃ±a 15082, Peru;-12.0547662;-77.0473565;pharmacy in Lima, Peru;Pharmacy in BreÃ±a, Peru
Boticas Otifarma;Av. Alfonso Ugarte 900, BreÃ±a 15082, Peru;-12.0509172;-77.0425949;pharmacy in Lima, Peru;Pharmacy in BreÃ±a, Peru
Cercado de limaa;Av. Ã“scar R. Benavides 358, Cercado de Lima 15082, Peru;-12.0466246;-77.0460843;pharmacy in Lima, Peru;Pharmacy in the Lima District, Peru
Latina;Av. PerÃº 2412, Cercado de Lima 15101;-12.031606;-77.0715093;pharmacy in Lima, Peru;Pharmacy in San MartÃ­n de Porres District
Farmacia Gloria;Int. A, Calle 29, San Miguel, Cercado de Lima 07016, Peru;-12.0772833;-77.1098858;pharmacy in Lima, Peru;Pharmacy in Peru
Botica TAMBO;JirÃ³n Ica 730, Cercado de Lima 15001, Peru;-12.0430451;-77.038201;pharmacy in Lima, Peru;Pharmacy in the Lima District, Peru
Botica Misalud Peru;Av. RepÃºblica de Venezuela 1776-A, BreÃ±a 15082, Peru;-12.055499;-77.0569638;pharmacy in Lima, Peru;Pharmacy in BreÃ±a, Peru
Farmacia;Jr. HuarochirÃ­ 200, Cercado de Lima 15082, Peru;-12.0476849;-77.0440949;pharmacy in Lima, Peru;Pharmacy in the Lima District, Peru
Boulevard;Av San Luis 2897, San Borja 15037, Peru;-12.1062655;-76.9921585;pharmacy in Lima, Peru;Pharmacy in the San Borja District, Peru
Mi Farma;Av. PerÃº 1798, San MartÃ­n de Porres 15101, Peru;-12.0320466;-77.0647677;pharmacy in Lima, Peru;Pharmacy in San MartÃ­n de Porres District, Peru
Faculty of Pharmacy and Biochemistry UNMSM;JirÃ³n Huanta 1182, Cercado de Lima 15001, Peru;-12.0560164;-77.0233606;pharmacy in Lima, Peru;Public university in the Lima District, Peru
Botica Estrada;Av. Arenales 485, JesÃºs MarÃ­a 15072, Peru;-12.069476;-77.0377391;pharmacy in Lima, Peru;Pharmacy in the Lima District, Peru
VIDER FARMACIA DERMATOLÃ“GICA;Av. Gral. Eugenio GarzÃ³n 952, JesÃºs MarÃ­a 15072, Peru;-12.0695278;-77.0475479;pharmacy in Lima, Peru;Pharmacy in JesÃºs MarÃ­a District, Lima, Peru
INKAFARMA;Av. Alfonso Ugarte 1000, Cercado de Lima 15082, Peru;-12.052084;-77.0425007;pharmacy in Lima, Peru;Pharmacy in BreÃ±a, Peru
Agente BBVA Botica Ahorro Y Salud;Pastor Bravo 198, San MartÃ­n de Porres 15102, Peru;-12.0326313;-77.0448435;pharmacy in Lima, Peru;Pharmacy in San MartÃ­n de Porres District, Peru
Bayer S.A.;calle las 15046, Calle Las Begonias 475, Cercado de Lima, Peru;-12.0934352;-77.0244266;pharmacy in Lima, Peru;Research institute in San Isidro, Peru
Mi Farma;JirÃ³n de la UniÃ³n 680, Cercado de Lima 15001, Peru;-12.0487066;-77.0332166;pharmacy in Lima, Peru;Pharmacy in the Lima District, Peru
Blancosac Importaciones SAC;Avenida EmancipaciÃ³n 325, Cercado de Lima 15001, Peru;-12.0475487;-77.0359343;pharmacy in Lima, Peru;Pharmacy in the Lima District, Peru
autoservicio en farmacia;Av. Alfredo Benavides 335, Lima 15074, Peru;-12.1243358;-77.0302084;pharmacy in Lima, Peru;Pharmacy in Peru
Farmaceutical & Nutraceutical & Germinals & Medicine Natural alternative complementary & Nannitaâ€™s;Rodolfo Beltran 517, Cercado de Lima 15079, Peru;-12.0410703;-77.052557;pharmacy in Lima, Peru;Pharmacy in the Lima District, Peru
Super Boticas Hollywood;Av. RepÃºblica de Venezuela 1100, Cercado de Lima 15082, Peru;-12.054978;-77.0492581;pharmacy in Lima, Peru;Pharmacy in BreÃ±a, Peru
Botica Estela;Lima 15001, Peru;-12.0477229;-77.0382219;pharmacy in Lima, Peru;Pharmacy in the Lima District, Peru
Angisa;Av Guzman Blanco 375, Cercado de Lima 15046, Peru;-12.0626451;-77.0400659;pharmacy in Lima, Peru;Pharmacy in the Lima District, Peru
Botica RedSalud;3512, Pacasmayo jr., Peru;-12.0444988;-77.0469153;pharmacy in Lima, Peru;Pharmacy in the Lima District, Peru
INKAFARMA;Av. PerÃº 1799, Cercado de Lima 15101, Peru;-12.0324297;-77.0647812;pharmacy in Lima, Peru;Pharmacy in San MartÃ­n de Porres District, Peru
Super Boticas Hollywood;Av. RepÃºblica de Venezuela 657, BreÃ±a 15082, Peru;-12.0547072;-77.0433325;pharmacy in Lima, Peru;Pharmacy in BreÃ±a, Peru
Rismed;JirÃ³n Chancay 621, Cercado de Lima 15001, Peru;-12.0460973;-77.038603;pharmacy in Lima, Peru;Pharmacy in the Lima District, Peru
Mifarma;Av. Alfonso Ugarte 298, Cercado de Lima 15079, Peru;-12.0427664;-77.0433687;pharmacy in Lima, Peru;Pharmacy in the Lima District, Peru
Farmacia Universal;Av. RepÃºblica de Polonia 600, Lima 15419, Peru;-11.9747176;-77.0020907;pharmacy in Lima, Peru;Pharmacy in the San Juan de Lurigancho, Peru
Botica Suprafarma;Av. Tarapaca 498, RÃ­mac 15093, Peru;-12.0303259;-77.0358002;pharmacy in Lima, Peru;Pharmacy in RÃ­mac District, Peru
Farmaceutical & Nutraceutical & Germinals & Medicine Natural Alternative Complementary Tradicional & Nanny's;Jiron, Rodolfo Beltran 517, Cercado de Lima 15079, Peru;-12.0418042;-77.0524688;pharmacy in Lima, Peru;Pharmacy in the Lima District, Peru
FARMAVID;Av. Ã“scar R. Benavides 339, Cercado de Lima 15082, Peru;-12.0468483;-77.045947;pharmacy in Lima, Peru;Pharmacy in the Lima District, Peru
Farma Alfa;Jr. Washington 1097, Lima 15001, Peru;-12.0582542;-77.0401185;pharmacy in Lima, Peru;Pharmacy in the Lima District, Peru
Botica Dental Pa Arleen;Avenida EmancipaciÃ³n 316, Cercado de Lima 15001, Peru;-12.0473691;-77.0356071;pharmacy in Lima, Peru;Pharmacy in the Lima District, Peru
Mifarma;Av. RepÃºblica de Venezuela 1022, BreÃ±a 15082, Peru;-12.054907;-77.0480599;pharmacy in Lima, Peru;Pharmacy in BreÃ±a, Peru
Pharmacy Rescue;1ero De Octubre 1464-1466, Cercado de Lima 15079, Peru;-12.0407115;-77.0611565;pharmacy in Lima, Peru;Pharmacy in the Lima District, Peru
Drogueria ABC Farma EIRL;Av. Mariscal Antonio JosÃ© de Sucre 296, Lima 15327, Peru;-12.0913471;-77.0791097;pharmacy in Lima, Peru;Pharmacy in Peru
autoservicio en farmacia;Edificio El Sur, Pje. los Pinos, Miraflores 15074, Peru;-12.123727;-77.0307857;pharmacy in Lima, Peru;Pharmacy in Peru
INKAFARMA;Car S/N, Lima 15560, Peru;-11.7358059;-76.257218;pharmacy in Lima, Peru;Pharmacy in Peru
Farmacia Queen;Calle Augusto Bolognesi 185, San Isidro 15076, Peru;-12.1010205;-77.0548527;pharmacy in Lima, Peru;Pharmacy in San Isidro, Peru
Boticas Otifarma;Av. Ã“scar R. Benavides 1405, Cercado de Lima 15082, Peru;-12.0482564;-77.059623;pharmacy in Lima, Peru;Pharmacy in the Lima District, Peru
Botica Mega Villa;Av. Materiales 200, Cercado de Lima 07006, Peru;-12.042441;-77.084915;pharmacy in Lima, Peru;Pharmacy in Carmen de la Legua Reynoso, Peru
Botica Inglesa;JirÃ³n Cailloma 336, Cercado de Lima 15001, Peru;-12.0461456;-77.0345065;pharmacy in Lima, Peru;Pharmacy in the Lima District, Peru
INKAFARMA;JirÃ³n de la UniÃ³n 559, Cercado de Lima 15001, Peru;-12.0476799;-77.0324707;pharmacy in Lima, Peru;Pharmacy in the Lima District, Peru
Botica Union S.A.;JirÃ³n Moquegua 154, Cercado de Lima 15001, Peru;-12.0495387;-77.0344946;pharmacy in Lima, Peru;Pharmacy in the Lima District, Peru
INKAFARMA;MZA. E LOTE. 04 RES. ASOC. SAN JUAN BAUTISTA Lima, Peru;-12.0455337;-77.0421961;pharmacy in Lima, Peru;Pharmacy in the Lima District, Peru
Pfizer;Av. Javier Prado Este 6230, Cercado de Lima 15012, Peru;-12.0699257;-76.9527077;pharmacy in Lima, Peru;Pharmacy in the La Molina District, Peru
FARMACIA FARMAMEDICA;Av. NicolÃ¡s AyllÃ³n 344, Cercado de Lima 15018, Peru;-12.0572088;-77.0107411;pharmacy in Lima, Peru;Drug store in the Lima District, Peru
Dentons;Av. Gral. CÃ³rdova 313, Cercado de Lima 15074, Peru;-12.114827;-77.0431463;pharmacy in Lima, Peru;Law firm in Peru
Botica La Reina;Av GuzmÃ¡n Blanco 400, Cercado de Lima 15046, Peru;-12.0631339;-77.0401974;pharmacy in Lima, Peru;Pharmacy in the Lima District, Peru
Pharmacy Peru;Avenida EmancipaciÃ³n 398, Cercado de Lima 15001, Peru;-12.046963;-77.0362799;pharmacy in Lima, Peru;Surgical supply store in the Lima District, Peru
Duo Salud;Avenida EmancipaciÃ³n 549, Cercado de Lima 15001, Peru;-12.0464374;-77.03813;pharmacy in Lima, Peru;Pharmacy in the Lima District, Peru
Comercial Katherine;Jr. Paruro 909, Cercado de Lima 15001, Peru;-12.0527134;-77.025057;pharmacy in Lima, Peru;Pharmacy in the Lima District, Peru
MiFarma374;Av. Guardia Civil 301-189, Cercado de Lima 15036, Peru;-12.091192;-77.008264;pharmacy in Lima, Peru;Pharmacy in the San Borja District, Peru
Dpto en VENTA;Reynaldo Saavedra PinÃ³n 2607, Cercado de Lima 15081, Peru;-12.0546983;-77.0695756;pharmacy in Lima, Peru;Pharmacy in the Lima District, Peru
BOTICAS DABRIFARMA;JirÃ³n Contumaza, Cercado de Lima 15001, Peru;-12.053419;-77.0343257;pharmacy in Lima, Peru;Pharmacy in the Lima District, Peru
Sun Pharmaceutical Industries SAC PerÃº;Av. RepÃºblica de PanamÃ¡ 3418, San Isidro 15047, Peru;-12.0978557;-77.0205299;pharmacy in Lima, Peru;Pharmaceutical company in San Isidro, Peru
Boticas PerÃº;Av. NicolÃ¡s de PiÃ©rola 798, Cercado de Lima 15001, Peru;-12.0507765;-77.0362106;pharmacy in Lima, Peru;Pharmacy in the Lima District, Peru
Farmacia Universal;Av. la Marina 2543, San Miguel 15087, Peru;-12.0782786;-77.0899882;pharmacy in Lima, Peru;Pharmacy in Peru
Mifarma;Avenida Garcilaso de la Vega 1337, Cercado de Lima 15001, Peru;-12.0570219;-77.0376746;pharmacy in Lima, Peru;Pharmacy in the Lima District, Peru
Inkafarma;JirÃ³n de la UniÃ³n 200, Cercado de Lima 15001, Peru;-12.044162;-77.030025;pharmacy in Lima, Peru;Pharmacy in the Lima District, Peru
MAFARM;Avenida EmancipaciÃ³n 599, Cercado de Lima 15001, Peru;-12.0459404;-77.0384576;pharmacy in Lima, Peru;Pharmacy in the Lima District, Peru
BOTICA Red PerÃº;Pl. Francisco Bolognesi 532, BreÃ±a 15082, Peru;-12.0597599;-77.0418094;pharmacy in Lima, Peru;Pharmacy in BreÃ±a, Peru
Diatribuidora Alcimar;JirÃ³n Chancay 707, Cercado de Lima 15001, Peru;-12.0470707;-77.0391778;pharmacy in Lima, Peru;Pharmacy in the Lima District, Peru
ASTRA MEDICAL - BOTICA INT. NÂ° 105;JirÃ³n Chancay 651, Cercado de Lima 15001, Peru;-12.0464214;-77.0388839;pharmacy in Lima, Peru;Pharmacy in the Lima District, Peru
INKAFARMA;Av. Universitaria 1630, Cercado de Lima 15088, Peru;-12.0661818;-77.0778282;pharmacy in Lima, Peru;Pharmacy in Peru
INKAFARMA;JR. GRAL. FELIPE 1000, LIMA 15082, Peru;-12.0590439;-77.046048;pharmacy in Lima, Peru;Pharmacy in BreÃ±a, Peru
Farmacia QCFARMA;Av. Alameda 113, Callao 07036, Peru;-12.0416597;-77.1223886;pharmacy in Lima, Peru;Drug store in Peru
Farmacia Venezuela;Av. RepÃºblica de Venezuela 619, BreÃ±a 15082, Peru;-12.054621;-77.0427991;pharmacy in Lima, Peru;Pharmacy in BreÃ±a, Peru
Botica Bristol S.A.C.;Av. Alfonso Ugarte 755, Cercado de Lima 15001, Peru;-12.0490249;-77.0422261;pharmacy in Lima, Peru;Pharmacy in the Lima District, Peru
Botica Good Farma;El, Av. Samuel Alcazar 266, RÃ­mac 15093, Peru;-12.0311095;-77.0284681;pharmacy in Lima, Peru;Pharmacy in RÃ­mac District, Peru
INKAFARMA;Av. La Paz NRO. 2561, LIMA 15087, Peru;-12.0795314;-77.1066454;pharmacy in Lima, Peru;Pharmacy in Peru
BOTICAS EL PUEBLO;JirÃ³n Miro Quesada 802, Cercado de Lima 15001, Peru;-12.0525428;-77.0251025;pharmacy in Lima, Peru;Pharmacy in the Lima District, Peru
Boehringer Ingelheim;Av. Canaval Moreyra 480, Cercado de Lima 15036, Peru;-12.0975863;-77.0207081;pharmacy in Lima, Peru;Pharmaceutical company in San Isidro, Peru
INKAFARMA;Residencial Lucyana, AV. CONDORCANQUI NRO. 901 URB, LIMA, Peru;-11.8854894;-77.0389955;pharmacy in Lima, Peru;Pharmacy in the Carabayllo District, Peru
ANRIC MEDIC DRUGSTORE;Calle Cristobal de Mena 177, San Miguel 15087, Peru;-12.0807723;-77.0875671;pharmacy in Lima, Peru;Pharmacy in Peru
QF Magistral Pharmacies;Av. MaraÃ±on 601, Los Olivos 15304, Peru;-11.9720494;-77.0706203;pharmacy in Lima, Peru;Pharmacy in Los Olivos District, Peru
INKAFARMA;Av. Inca Garcilaso de la Vega NRO. 1383, Cercado de Lima 15001, Peru;-12.0567192;-77.037111;pharmacy in Lima, Peru;Pharmacy in the Lima District, Peru
Botica Melyfarma;JirÃ³n Chancay 634, Cercado de Lima 15001, Peru;-12.0461569;-77.0387727;pharmacy in Lima, Peru;Pharmacy in the Lima District, Peru
Botica Santa Paula;Zarumilla 850, San MartÃ­n de Porres 15102, Peru;-12.0333178;-77.0530355;pharmacy in Lima, Peru;Pharmacy in San MartÃ­n de Porres District, Peru
Tokuyama Dental;Avenida EmancipaciÃ³n 325, Cercado de Lima 15001, Peru;-12.0475943;-77.0359989;pharmacy in Lima, Peru;Pharmacy in the Lima District, Peru
Farmacia homeopatica;La Molina 15082, Peru;-12.0463731;-77.042754;pharmacy in Lima, Peru;Homeopathic pharmacy in the Lima District, Peru
Botica Dental Ebenezer EIRL;Galeria Cayetano Heredia, Avenida EmancipaciÃ³n 340, Cercado de Lima 15001, Peru;-12.0472675;-77.0358062;pharmacy in Lima, Peru;Pharmacy in the Lima District, Peru
